LEMUR-2-AMANDA-SVANTE   
1 48269U 21034B   26068.77637527  .00030872  00000+0  11134-2 0  9996
2 48269  97.5829 144.8625 0002703 205.4721 154.6385 15.28469003265849
STARLINK-36107          
1 66979U 25288W   26068.30287971  .00023894  00000+0  87468-3 0  9992
2 66979  43.0022  26.0239 0001332 256.7609 103.3094 15.27591966 15227
